     2.100          NAVIGATION                              RINEX VERSION / TYPE
fic2rin                                 08/12/2012 00:13:42 PGM / RUN BY / DATE
                                                            END OF HEADER
17 12  8 11  2  0  0.0  .106095336378D-03 -.295585778076D-11  .000000000000D+00
     .116000000000D+03 -.270000000000D+02  .458661962255D-08 -.813188205810D-01
    -.138022005558D-05  .745075405575D-02  .819936394691D-05  .515372257233D+04
     .525600000000D+06 -.931322574615D-08  .278680886386D+01  .912696123123D-07
     .963707846986D+00  .227062500000D+03 -.229542091452D+01 -.805426406386D-08
     .346800159904D-09  .100000000000D+01  .170000000000D+04  .000000000000D+00
     .340000000000D+01  .000000000000D+00 -.107102096081D-07  .116000000000D+03
     .518406000000D+06  .400000000000D+01
18 12  8 11  2  0  0.0  .209501013160D-03  .181898940355D-11  .000000000000D+00
     .690000000000D+02  .295312500000D+02  .535629453974D-08  .138178613038D+01
     .154227018356D-05  .136274010874D-01  .880099833012D-05  .515371984482D+04
     .525600000000D+06 -.301748514175D-06 -.143159652043D+01  .447034835815D-07
     .928782363125D+00  .198718750000D+03 -.215443166969D+01 -.848321050263D-08
    -.331442377334D-09  .100000000000D+01  .170000000000D+04  .000000000000D+00
     .240000000000D+01  .000000000000D+00 -.107102096081D-07  .690000000000D+02
     .518406000000D+06  .400000000000D+01
19 12  8 11  2  0  0.0 -.293182209134D-03 -.363797880709D-11  .000000000000D+00
     .540000000000D+02 -.240625000000D+02  .463733602080D-08 -.908467502941D+00
    -.129267573357D-05  .855554139707D-02  .743940472603D-05  .515360492706D+04
     .525600000000D+06  .180676579475D-06  .283960843880D+01 -.100582838058D-06
     .961073184190D+00  .231687500000D+03  .222355054346D+00 -.801354808216D-08
     .399659504565D-09  .100000000000D+01  .170000000000D+04  .000000000000D+00
     .240000000000D+01  .000000000000D+00 -.149011611938D-07  .540000000000D+02
     .518406000000D+06  .400000000000D+01
20 12  8 11  2  0  0.0  .660582445562D-04  .682121026330D-12  .000000000000D+00
     .660000000000D+02  .348437500000D+02  .526914805259D-08  .179181320170D+01
     .164285302162D-05  .493845797610D-02  .901520252228D-05  .515365498924D+04
     .525600000000D+06 -.670552253723D-07 -.148529066393D+01 -.154599547386D-06
     .929309415936D+00  .186718750000D+03  .128313918851D+01 -.825677249915D-08
    -.291797868838D-09  .100000000000D+01  .170000000000D+04  .000000000000D+00
     .340000000000D+01  .000000000000D+00 -.791624188423D-08  .660000000000D+02
     .518406000000D+06  .400000000000D+01
21 12  8 11  2  0  0.0 -.242385547608D-03 -.250111042988D-11  .000000000000D+00
     .760000000000D+02 -.136875000000D+02  .534772275412D-08  .251860732912D+01
    -.903382897377D-06  .193233519094D-01  .712648034096D-05  .515357965469D+04
     .525600000000D+06 -.260770320892D-07 -.248200321260D+01 -.316649675369D-06
     .931526393676D+00  .227218750000D+03 -.222795004869D+01 -.805354974839D-08
    -.278583032673D-10  .100000000000D+01  .170000000000D+04  .000000000000D+00
     .240000000000D+01  .000000000000D+00 -.111758708954D-07  .760000000000D+02
     .518406000000D+06  .400000000000D+01
22 12  8 11  2  0  0.0  .146446283907D-03  .341060513165D-12  .000000000000D+00
     .360000000000D+02  .369687500000D+02  .548665711272D-08  .600838002857D+00
     .205636024475D-05  .631522841286D-02  .825151801109D-05  .515367521286D+04
     .525600000000D+06 -.745058059692D-08 -.142837341200D+01  .409781932831D-07
     .926509971511D+00  .204343750000D+03 -.201033692919D+01 -.850892585949D-08
    -.318227541169D-09  .100000000000D+01  .170000000000D+04  .000000000000D+00
     .240000000000D+01  .000000000000D+00 -.172294676304D-07  .360000000000D+02
     .518406000000D+06  .400000000000D+01
23 12  8 11  2  0  0.0  .176330562681D-03 -.386535248253D-11  .000000000000D+00
     .890000000000D+02  .764687500000D+02  .448768693017D-08 -.131189686200D+01
     .382401049137D-05  .820524990559D-02  .603683292866D-05  .515360027313D+04
     .525600000000D+06  .298023223877D-07 -.378200992995D+00 -.184401869774D-06
     .959407988428D+00  .262406250000D+03 -.295800083217D+01 -.807783647431D-08
    -.785747015231D-11  .100000000000D+01  .170000000000D+04  .000000000000D+00
     .240000000000D+01  .000000000000D+00 -.200234353542D-07  .890000000000D+02
     .518406000000D+06  .400000000000D+01
25 12  8 11  2  0  0.0  .394056551158D-04  .102318153949D-11  .000000000000D+00
     .620000000000D+02 -.554687500000D+02  .415803034151D-08  .185225389475D+01
    -.291131436825D-05  .183309952263D-02  .719539821148D-05  .515367764854D+04
     .525600000000D+06 -.745058059692D-08  .169373688712D+01 -.130385160446D-07
     .969345726992D+00  .242875000000D+03  .778608301235D+00 -.795033116320D-08
     .107861635727D-09  .100000000000D+01  .170000000000D+04  .000000000000D+00
     .240000000000D+01  .000000000000D+00  .512227416039D-08  .620000000000D+02
     .518406000000D+06  .400000000000D+01
26 12  8 11  2  0  0.0 -.318733043969D-03  .122781784739D-10  .000000000000D+00
     .640000000000D+02  .686250000000D+02  .391837750187D-08 -.144919364455D+01
     .380352139473D-05  .207648313371D-01  .604987144470D-05  .515366843987D+04
     .525600000000D+06  .379979610443D-06 -.303874954480D+00  .376254320145D-06
     .982605758365D+00  .273656250000D+03  .120500554582D+01 -.776889503423D-08
    -.142148778210D-09  .100000000000D+01  .170000000000D+04  .000000000000D+00
     .240000000000D+01  .000000000000D+00 -.605359673500D-08  .640000000000D+02
     .518406000000D+06  .400000000000D+01
27 12  8 11  2  0  0.0  .418848358095D-03  .420641299570D-11  .000000000000D+00
     .760000000000D+02 -.346875000000D+01  .398838041777D-08 -.612922664403D+00
    -.145286321640D-06  .217447648756D-01  .479258596897D-05  .515369879723D+04
     .525600000000D+06 -.385567545891D-06  .619421735024D+00 -.800937414169D-07
     .982161993869D+00  .303312500000D+03 -.104973564141D+01 -.823891461244D-08
     .120362156424D-09  .100000000000D+01  .170000000000D+04  .000000000000D+00
     .485000000000D+01  .000000000000D+00 -.419095158577D-08  .760000000000D+02
     .518406000000D+06  .400000000000D+01
28 12  8 11  2  0  0.0  .173967797309D-03  .386535248253D-11  .000000000000D+00
     .640000000000D+02 -.607187500000D+02  .402409619119D-08  .541819495860D+00
    -.320374965668D-05  .179548289161D-01  .738352537155D-05  .515363350105D+04
     .525600000000D+06 -.279396772385D-06  .175353771443D+01 -.335276126862D-07
     .979682650549D+00  .251375000000D+03 -.182335522814D+01 -.811248077453D-08
     .114290474943D-10  .100000000000D+01  .170000000000D+04  .000000000000D+00
     .240000000000D+01  .000000000000D+00 -.107102096081D-07  .640000000000D+02
     .518406000000D+06  .400000000000D+01
29 12  8 11  2  0  0.0  .342914834619D-03  .409272615798D-11  .000000000000D+00
     .230000000000D+02 -.167500000000D+02  .450947355196D-08  .272453169221D+01
    -.110827386379D-05  .198830734007D-02  .791996717453D-05  .515380624580D+04
     .525600000000D+06  .372529029846D-07  .279541253524D+01  .391155481339D-07
     .964273043923D+00  .227843750000D+03 -.105203375112D+01 -.792818738368D-08
     .341085636157D-09  .100000000000D+01  .170000000000D+04  .000000000000D+00
     .240000000000D+01  .000000000000D+00 -.977888703346D-08  .230000000000D+02
     .518406000000D+06  .400000000000D+01
30 12  8 11  2  0  0.0 -.354785006493D-03 -.238742359215D-10  .000000000000D+00
     .650000000000D+02 -.629375000000D+02  .433053752713D-08 -.207518847239D+00
    -.327453017235D-05  .112317429157D-01  .754371285439D-05  .515369764328D+04
     .525600000000D+06 -.214204192162D-06  .160210871606D+01  .521540641785D-07
     .960539132779D+00  .235375000000D+03  .159243586076D+01 -.820891336276D-08
     .124648049234D-09  .100000000000D+01  .170000000000D+04  .000000000000D+00
     .685000000000D+01  .000000000000D+00 -.419095158577D-08  .650000000000D+02
     .518406000000D+06  .400000000000D+01
31 12  8 11  2  0  0.0  .266659539193D-03  .261479726760D-11  .000000000000D+00
     .280000000000D+02 -.142500000000D+02  .402588197986D-08 -.289710891375D+01
    -.689178705215D-06  .776395073626D-02  .421889126301D-05  .515370160675D+04
     .525600000000D+06  .167638063431D-07  .674906623381D+00  .745058059692D-07
     .981043594461D+00  .310343750000D+03 -.859324247424D+00 -.788675708652D-08
    -.111433213069D-09  .100000000000D+01  .170000000000D+04  .000000000000D+00
     .240000000000D+01  .000000000000D+00 -.135041773319D-07  .280000000000D+02
     .518406000000D+06  .400000000000D+01
32 12  8 11  2  0  0.0 -.475209206343D-03 -.432009983342D-11  .000000000000D+00
     .530000000000D+02  .531875000000D+02  .463876465174D-08 -.232063283592D+01
     .267848372459D-05  .118129423354D-01  .920891761780D-05  .515361310768D+04
     .525600000000D+06 -.290572643280D-06 -.135136484986D+01  .987201929092D-07
     .950734530001D+00  .196062500000D+03 -.542580685783D+00 -.792818738368D-08
    -.318227541169D-09  .100000000000D+01  .170000000000D+04  .000000000000D+00
     .240000000000D+01  .000000000000D+00 -.325962901115D-08  .530000000000D+02
     .518406000000D+06  .400000000000D+01
27 12  8 11  1 59 44.0  .418841373175D-03  .420641299570D-11  .000000000000D+00
     .220000000000D+02 -.346875000000D+01  .398838041777D-08 -.615256363989D+00
    -.145286321640D-06  .217447686009D-01  .479258596897D-05  .515369880486D+04
     .525584000000D+06 -.385567545891D-06  .619421879853D+00 -.800937414169D-07
     .982162002647D+00  .303312500000D+03 -.104973563117D+01 -.823891461244D-08
     .120362156424D-09  .100000000000D+01  .170000000000D+04  .000000000000D+00
     .240000000000D+01  .000000000000D+00 -.419095158577D-08  .220000000000D+02
     .519486000000D+06  .400000000000D+01
